ONEWEB-0349             
1 49281U 21090C   24118.55403937 -.00000009  00000+0 -53047-4 0  9991
2 49281  87.9194  69.7704 0002268  79.6263 280.5125 13.20773028126788
ONEWEB-0353             
1 49282U 21090D   24118.47058826 -.00000171  00000+0 -49672-3 0  9994
2 49282  87.8929  85.0536 0001723  89.0427 271.0900 13.14502523125014
ONEWEB-0356             
1 49283U 21090E   24118.55244879  .00000019  00000+0  14347-4 0  9990
2 49283  87.9194  69.7658 0001969  55.2259 304.9059 13.20769437126786
ONEWEB-0358             
1 49284U 21090F   24118.35516259  .00000018  00000+0  12814-4 0  9999
2 49284  87.9194  69.7909 0002177  75.5703 284.5672 13.20770644127481
ONEWEB-0359             
1 49285U 21090G   24118.57928879  .00000102  00000+0  21849-3 0  9990
2 49285  87.9192  69.7654 0002517  83.6355 276.5065 13.20770946127491
ONEWEB-0360             
1 49286U 21090H   24118.56983387  .00000098  00000+0  20831-3 0  9999
2 49286  87.9194  69.7721 0002149  83.4687 276.6691 13.20773203126805
ONEWEB-0361             
1 49287U 21090J   24118.39938101  .00000055  00000+0  10259-3 0  9991
2 49287  87.9192  69.8004 0001921  79.3426 280.7924 13.20773178127235
ONEWEB-0362             
1 49288U 21090K   24118.49171170  .00000027  00000+0  34108-4 0  9997
2 49288  87.9111 100.3633 0002196  96.8427 263.2955 13.19726415123940
